#aV2009  4  7  0  0   .00000000      96 DD+AD WGS84 FIT  NGA
## 1526 172800.00000000   900.00000000 54928  .0000000000000
+   31     2  3  4  5  6  7  8  9 10 11 12 13 14 15 16 17 18
+         19 20 21 22 23 24 25 26 27 28 29 30 31 32  0  0  0
+          0  0  0  0  0  0  0  0  0  0  0  0  0  0  0  0  0
+          0  0  0  0  0  0  0  0  0  0  0  0  0  0  0  0  0
+          0  0  0  0  0  0  0  0  0  0  0  0  0  0  0  0  0
++         0  0  0  0  0  0  0  0  0  0  0  0  0  0  0  0  0
++         0  0  0  0  0  0  0  0  0  0  0  0  0  0  0  0  0
++         0  0  0  0  0  0  0  0  0  0  0  0  0  0  0  0  0
++         0  0  0  0  0  0  0  0  0  0  0  0  0  0  0  0  0
++         0  0  0  0  0  0  0  0  0  0  0  0  0  0  0  0  0
%c cc cc ccc ccc cccc cccc cccc cccc ccccc ccccc ccccc ccccc
%c cc cc ccc ccc cccc cccc cccc cccc ccccc ccccc ccccc ccccc
%f  0.0000000  0.000000000  0.00000000000  0.000000000000000
%f  0.0000000  0.000000000  0.00000000000  0.000000000000000
%i    0    0    0    0      0      0      0      0         0
%i    0    0    0    0      0      0      0      0         0
/*      NGA, ST. LOUIS,MO.                                  
/*   EPHEMERIS COMPUTED FROM  3 DAYS OF DATA                
/* CCCCCCCCCCCCCCCCCCCCCCCCCCCCCCCCCCCCCCCCCCCCCCCCCCCCCCCCC
/* CCCCCCCCCCCCCCCCCCCCCCCCCCCCCCCCCCCCCCCCCCCCCCCCCCCCCCCCC
*  2009  4  7  4  0   .00000000                                                 
P  2 -22965.346497  12057.969243  -4700.087632    153.721798                    
V  2   2715.362641  -6415.258071 -30823.931565      -.003418                    
P  3  11813.204132 -13828.336893  18937.699168    376.047426                    
V  3   6659.796875  24102.984477  13589.393542       .053131                    
P  4 -22060.103019   1710.250245 -15086.046662    -41.903562                    
V  4  14346.432532 -12393.514030 -22213.726873      -.147404                    
P  5   3002.290061  16911.230939 -20587.182831    -27.016363                    
V  5 -24290.120002  -7814.913374  -9986.644525      -.113758                    
P  6  14361.318903  -8764.025173  20736.607690     68.912226                    
V  6   4162.645337  25689.833370   8095.051357       .175708                    
P  7  -5375.443421 -14411.358044  21623.969151     20.722753                    
V  7  22887.413129 -15240.578500  -4573.355285      -.005505                    
P  8 -17449.062678  -4563.606492  19618.394621   -197.364981                    
V  8  20872.579033 -13395.367116  14925.663227      -.017988                    
P  9 -10836.253944  20017.922029 -14246.179728     49.426762                    
V  9 -14672.451383   8766.704176  24709.030746       .019194                    
P 10 -17631.529461   5955.050125  18912.412977    -13.951301                    
V 10 -21061.022464 -12092.835627 -15357.532470      -.006683                    
P 11   6804.771277 -22219.487510 -12751.115451      2.085767                    
V 11  14155.902127  -8940.173753  23861.920287      -.013195                    
P 12    183.634960  16195.363069 -20997.323074   -297.279021                    
V 12 -24431.769316 -11021.975107  -8569.608274       .046331                    
P 13  -5784.806576 -24605.207067   8049.056396    293.785134                    
V 13   1383.440459 -10393.279320 -30292.821063       .010827                    
P 14  13792.597254   9968.963307 -20304.292092   -129.614725                    
V 14    352.190550  25950.206042  12798.865548       .056997                    
P 15  -7883.846918  21184.179423  13921.791729   -278.211005                    
V 15  -3926.515004 -17382.962495  24326.510419      -.044567                    
P 16  21263.630464  -1677.126033  16040.503530     61.481450                    
V 16  17272.441745  10485.788757 -21651.699721      -.031112                    
P 17 -14120.371886 -11955.376745 -19062.159765     53.244294                    
V 17   -234.228717 -24310.733085  15183.161168       .016522                    
P 18  18899.636567  16881.895299   8771.939873    -67.851721                    
V 18 -10831.735776  -2467.096564  28433.371714       .033971                    
P 19   8126.909818 -22288.329699  11752.730573     28.917595                    
V 19   2711.648466  14903.769419  26773.611244      -.009271                    
P 20  -2640.576977 -17243.453435 -20168.746048     86.037172                    
V 20  23636.014397   9317.387749 -11086.930238      -.010651                    
P 21  10293.900657  12218.337286  21485.825987     20.556119                    
V 21 -22387.661327  14718.973234   1753.404201      -.019975                    
P 22  23925.820735  11544.373026  -1136.250802    202.087927                    
V 22   -135.408099   3775.201004  31208.419525      -.005338                    
P 23    179.576117 -26234.885167  -3080.572484    389.167278                    
V 23   2989.134217   3667.364606 -31835.871393       .003456                    
P 24  -5506.169592  18709.486858  18278.727504    179.304917                    
V 24 -20262.175678  10722.969021 -16944.714366       .029375                    
P 25   1228.907718 -18468.758436  19472.250152    345.169009                    
V 25  18967.875481 -14560.826699 -15091.716261       .215875                    
P 26  -6887.948801  22412.582278  11423.810243     55.472217                    
V 26  -2442.897999 -15426.370402  28025.455917       .019754                    
P 27 -21877.680350  15044.480623   2300.786859     38.715925                    
V 27    239.211518  -3102.792413  31830.579718       .032039                    
P 28 -23245.743314 -13154.902772   1577.607504    -23.922634                    
V 28   2388.930811  -1440.725083  31575.271281      -.001725                    
P 29   5988.865619  25069.897345   6600.392559      6.867986                    
V 29  -2208.245179   8366.207516 -30226.121195       .041282                    
P 30  12245.464209  17643.748181 -16043.385325    137.519663                    
V 30 -18901.249536  -5906.253935 -21324.305235       .027216                    
P 31  22428.958432  -4367.926898 -13446.008633    -56.997059                    
V 31 -13183.450636  11437.233840 -25174.066743      -.010749                    
P 32   6611.992345 -13442.046710 -21538.586608    277.855120                    
V 32  24421.082978  14287.569030  -1155.673031      -.048449                    
EOF
